LEMUR-2-PETERG          
1 42841U 17042S   26068.48235713  .00023240  00000+0  81076-3 0  9993
2 42841  97.3980 253.6596 0003700 341.6938  18.4169 15.29611459473171
STARLINK-33836          
1 63642U 25083J   26068.16536240  .00000267  00000+0  19222-4 0  9992
2 63642  43.0029   8.4357 0000973 172.3981 187.6886 15.27557541 49984
